{"type": "FeatureCollection", "features": [ {"type": "Feature", "properties": {"norad_id": 30096, "name": "FENGYUN 1C DEB", "group": "fengyun-1c-debris", "lat": -25.40366434762793, "lon": -129.39717096367113, "alt_km": 760.9103270376381, "timestamp": "2025-12-02T07:10:09.389206+00:00", "meta": {"OBJECT_NAME": "FENGYUN 1C DEB", "OBJECT_ID": "1999-025QZ", "EPOCH": "2025-12-01T18:27:45.799776", "MEAN_MOTION": 14.31657934, "ECCENTRICITY": 0.0078817, "INCLINATION": 99.1488, "RA_OF_ASC_NODE": 54.4345, "ARG_OF_PERICENTER": 264.4566, "MEAN_ANOMALY": 94.7622, "EPHEMERIS_TYPE": 0, "CLASSIFICATION_TYPE": "U", "NORAD_CAT_ID": 30096, "ELEMENT_SET_NO": 999, "REV_AT_EPOCH": 98389, "BSTAR": 0.00034649, "MEAN_MOTION_DOT": 9.06e-06, "MEAN_MOTION_DDOT": 0}, "tle": {"line1": "1 30096U 99025QZ  25335.76928009  .00000906  00000+0  34649-3 0  9995", "line2": "2 30096  99.1488  54.4345 0078817 264.4566  94.7622 14.31657934983898"}}, "geometry": {"type": "Point", "coordinates": [-129.39717096367113, -25.40366434762793]}}, {"type": "Feature", "properties": {"norad_id": 30099, "name": "FENGYUN 1C DEB", "group": "fengyun-1c-debris", "lat": -54.218901716693246, "lon": 60.905002728622684, "alt_km": 774.2005729696657, "timestamp": "2025-12-02T07:10:09.389216+00:00", "meta": {"OBJECT_NAME": "FENGYUN 1C DEB", "OBJECT_ID": "1999-025RC", "EPOCH": "2025-12-01T11:18:38.065824", "MEAN_MOTION": 14.25910104, "ECCENTRICITY": 0.00608347, "INCLINATION": 98.542, "RA_OF_ASC_NODE": 48.0619, "ARG_OF_PERICENTER": 278.1615, "MEAN_ANOMALY": 101.3595, "EPHEMERIS_TYPE": 0, "CLASSIFICATION_TYPE": "U", "NORAD_CAT_ID": 30099, "ELEMENT_SET_NO": 999, "REV_AT_EPOCH": 98029, "BSTAR": 0.00034389942, "MEAN_MOTION_DOT": 7.92e-06, "MEAN_MOTION_DDOT": 0}, "tle": {"line1": "1 30099U 99025RC  25335.47127391  .00000792  00000+0  34390-3 0  9997", "line2": "2 30099  98.5420  48.0619 0060834 278.1615 101.3595 14.25910104980299"}}, "geometry": {"type": "Point", "coordinates": [60.905002728622684, -54.218901716693246]}}, {"type": "Feature", "properties": {"norad_id": 30102, "name": "FENGYUN 1C DEB", "group": "fengyun-1c-debris", "lat": -81.56791537314761, "lon": 80.70668481219123, "alt_km": 878.1562426604087, "timestamp": "2025-12-02T07:10:09.389227+00:00", "meta": {"OBJECT_NAME": "FENGYUN 1C DEB", "OBJECT_ID": "1999-025RF", "EPOCH": "2025-12-01T12:02:09.500640", "MEAN_MOTION": 14.2210014, "ECCENTRICITY": 0.01423803, "INCLINATION": 98.3795, "RA_OF_ASC_NODE": 343.8328, "ARG_OF_PERICENTER": 32.9819, "MEAN_ANOMALY": 118.4232, "EPHEMERIS_TYPE": 0, "CLASSIFICATION_TYPE": "U", "NORAD_CAT_ID": 30102, "ELEMENT_SET_NO": 999, "REV_AT_EPOCH": 97798, "BSTAR": 0.00041539034, "MEAN_MOTION_DOT": 9.79e-06, "MEAN_MOTION_DDOT": 0}, "tle": {"line1": "1 30102U 99025RF  25335.50149885  .00000979  00000+0  41539-3 0  9998", "line2": "2 30102  98.3795 343.8328 0142380  32.9819 118.4232 14.22100140977986"}}, "geometry": {"type": "Point", "coordinates": [80.70668481219123, -81.56791537314761]}}, {"type": "Feature", "properties": {"norad_id": 30103, "name": "FENGYUN 1C DEB", "group": "fengyun-1c-debris", "lat": 11.904912066035743, "lon": 139.1987641062496, "alt_km": 766.8504548907777, "timestamp": "2025-12-02T07:10:09.389237+00:00", "meta": {"OBJECT_NAME": "FENGYUN 1C DEB", "OBJECT_ID": "1999-025RG", "EPOCH": "2025-12-01T12:23:30.796224", "MEAN_MOTION": 14.24820947, "ECCENTRICITY": 0.00637029, "INCLINATION": 99.244, "RA_OF_ASC_NODE": 316.4079, "ARG_OF_PERICENTER": 151.609, "MEAN_ANOMALY": 325.0542, "EPHEMERIS_TYPE": 0, "CLASSIFICATION_TYPE": "U", "NORAD_CAT_ID": 30103, "ELEMENT_SET_NO": 999, "REV_AT_EPOCH": 97759, "BSTAR": 0.00047088744, "MEAN_MOTION_DOT": 1.073e-05, "MEAN_MOTION_DDOT": 0}, "tle": {"line1": "1 30103U 99025RG  25335.51632866  .00001073  00000+0  47089-3 0  9998", "line2": "2 30103  99.2440 316.4079 0063702 151.6090 325.0542 14.24820947977596"}}, "geometry": {"type": "Point", "coordinates": [139.1987641062496, 11.904912066035743]}}, {"type": "Feature", "properties": {"norad_id": 30104, "name": "FENGYUN 1C DEB", "group": "fengyun-1c-debris", "lat": -15.101053112626662, "lon": 176.11845408749974, "alt_km": 858.6158551711123, "timestamp": "2025-12-02T07:10:09.389247+00:00", "meta": {"OBJECT_NAME": "FENGYUN 1C DEB", "OBJECT_ID": "1999-025RH", "EPOCH": "2025-12-01T19:32:20.303232", "MEAN_MOTION": 14.25607394, "ECCENTRICITY": 0.0073709, "INCLINATION": 98.3602, "RA_OF_ASC_NODE": 173.3822, "ARG_OF_PERICENTER": 140.1851, "MEAN_ANOMALY": 239.4223, "EPHEMERIS_TYPE": 0, "CLASSIFICATION_TYPE": "U", "NORAD_CAT_ID": 30104, "ELEMENT_SET_NO": 999, "REV_AT_EPOCH": 97737, "BSTAR": 0.00072761, "MEAN_MOTION_DOT": 1.732e-05, "MEAN_MOTION_DDOT": 0}, "tle": {"line1": "1 30104U 99025RH  25335.81412388  .00001732  00000+0  72761-3 0  9994", "line2": "2 30104  98.3602 173.3822 0073709 140.1851 239.4223 14.25607394977379"}}, "geometry": {"type": "Point", "coordinates": [176.11845408749974, -15.101053112626662]}}, {"type": "Feature", "properties": {"norad_id": 30105, "name": "FENGYUN 1C DEB", "group": "fengyun-1c-debris", "lat": -72.54265058270445, "lon": 113.87677137261208, "alt_km": 952.6823666104065, "timestamp": "2025-12-02T07:10:09.389258+00:00", "meta": {"OBJECT_NAME": "FENGYUN 1C DEB", "OBJECT_ID": "1999-025RJ", "EPOCH": "2025-12-01T09:42:59.421888", "MEAN_MOTION": 14.21369399, "ECCENTRICITY": 0.01997791, "INCLINATION": 98.5931, "RA_OF_ASC_NODE": 321.7453, "ARG_OF_PERICENTER": 106.6557, "MEAN_ANOMALY": 255.6656, "EPHEMERIS_TYPE": 0, "CLASSIFICATION_TYPE": "U", "NORAD_CAT_ID": 30105, "ELEMENT_SET_NO": 999, "REV_AT_EPOCH": 97601, "BSTAR": 0.00030963095, "MEAN_MOTION_DOT": 7.84e-06, "MEAN_MOTION_DDOT": 0}, "tle": {"line1": "1 30105U 99025RJ  25335.40485442  .00000784  00000+0  30963-3 0  9995", "line2": "2 30105  98.5931 321.7453 0199779 106.6557 255.6656 14.21369399976018"}}, "geometry": {"type": "Point", "coordinates": [113.87677137261208, -72.54265058270445]}}, {"type": "Feature", "properties": {"norad_id": 30106, "name": "FENGYUN 1C DEB", "group": "fengyun-1c-debris", "lat": 26.62933413337761, "lon": -122.11404830154365, "alt_km": 646.3756788351366, "timestamp": "2025-12-02T07:10:09.389268+00:00", "meta": {"OBJECT_NAME": "FENGYUN 1C DEB", "OBJECT_ID": "1999-025RK", "EPOCH": "2025-12-01T16:45:22.336416", "MEAN_MOTION": 14.83754708, "ECCENTRICITY": 0.0048436, "INCLINATION": 98.9237, "RA_OF_ASC_NODE": 241.7339, "ARG_OF_PERICENTER": 236.419, "MEAN_ANOMALY": 184.4397, "EPHEMERIS_TYPE": 0, "CLASSIFICATION_TYPE": "U", "NORAD_CAT_ID": 30106, "ELEMENT_SET_NO": 999, "REV_AT_EPOCH": 98381, "BSTAR": 0.0050123, "MEAN_MOTION_DOT": 0.00042525, "MEAN_MOTION_DDOT": 0}, "tle": {"line1": "1 30106U 99025RK  25335.69817519  .00042525  00000+0  50123-2 0  9999", "line2": "2 30106  98.9237 241.7339 0048436 236.4190 184.4397 14.83754708983811"}}, "geometry": {"type": "Point", "coordinates": [-122.11404830154365, 26.62933413337761]}}, {"type": "Feature", "properties": {"norad_id": 30107, "name": "FENGYUN 1C DEB", "group": "fengyun-1c-debris", "lat": 63.288956158497854, "lon": 15.279232422719986, "alt_km": 881.6959302583209, "timestamp": "2025-12-02T07:10:09.389278+00:00", "meta": {"OBJECT_NAME": "FENGYUN 1C DEB", "OBJECT_ID": "1999-025RL", "EPOCH": "2025-12-01T02:00:11.552256", "MEAN_MOTION": 14.14412642, "ECCENTRICITY": 0.012641, "INCLINATION": 98.8488, "RA_OF_ASC_NODE": 32.1093, "ARG_OF_PERICENTER": 309.0438, "MEAN_ANOMALY": 49.9539, "EPHEMERIS_TYPE": 0, "CLASSIFICATION_TYPE": "U", "NORAD_CAT_ID": 30107, "ELEMENT_SET_NO": 999, "REV_AT_EPOCH": 97396, "BSTAR": 9.4457741e-05, "MEAN_MOTION_DOT": 1.5e-06, "MEAN_MOTION_DDOT": 0}, "tle": {"line1": "1 30107U 99025RL  25335.08346704  .00000150  00000+0  94458-4 0  9995", "line2": "2 30107  98.8488  32.1093 0126410 309.0438  49.9539 14.14412642973969"}}, "geometry": {"type": "Point", "coordinates": [15.279232422719986, 63.288956158497854]}}, {"type": "Feature", "properties": {"norad_id": 30108, "name": "FENGYUN 1C DEB", "group": "fengyun-1c-debris", "lat": -43.967485854011485, "lon": 133.96354747884328, "alt_km": 983.2930366265027, "timestamp": "2025-12-02T07:10:09.389288+00:00", "meta": {"OBJECT_NAME": "FENGYUN 1C DEB", "OBJECT_ID": "1999-025RM", "EPOCH": "2025-12-01T10:29:24.652896", "MEAN_MOTION": 14.17140561, "ECCENTRICITY": 0.01980811, "INCLINATION": 98.6593, "RA_OF_ASC_NODE": 321.5767, "ARG_OF_PERICENTER": 54.5456, "MEAN_ANOMALY": 96.3681, "EPHEMERIS_TYPE": 0, "CLASSIFICATION_TYPE": "U", "NORAD_CAT_ID": 30108, "ELEMENT_SET_NO": 999, "REV_AT_EPOCH": 97438, "BSTAR": 0.00036442665, "MEAN_MOTION_DOT": 8.47e-06, "MEAN_MOTION_DDOT": 0}, "tle": {"line1": "1 30108U 99025RM  25335.43709089  .00000847  00000+0  36443-3 0  9996", "line2": "2 30108  98.6593 321.5767 0198081  54.5456  96.3681 14.17140561974385"}}, "geometry": {"type": "Point", "coordinates": [133.96354747884328, -43.967485854011485]}}, {"type": "Feature", "properties": {"norad_id": 30109, "name": "FENGYUN 1C DEB", "group": "fengyun-1c-debris", "lat": -36.90052536706234, "lon": -23.30050204737351, "alt_km": 778.2190178697938, "timestamp": "2025-12-02T07:10:09.389298+00:00", "meta": {"OBJECT_NAME": "FENGYUN 1C DEB", "OBJECT_ID": "1999-025RN", "EPOCH": "2025-12-01T13:19:02.920224", "MEAN_MOTION": 14.17515934, "ECCENTRICITY": 0.01671979, "INCLINATION": 98.5074, "RA_OF_ASC_NODE": 329.5342, "ARG_OF_PERICENTER": 264.8946, "MEAN_ANOMALY": 222.5399, "EPHEMERIS_TYPE": 0, "CLASSIFICATION_TYPE": "U", "NORAD_CAT_ID": 30109, "ELEMENT_SET_NO": 999, "REV_AT_EPOCH": 97393, "BSTAR": 0.00045426458, "MEAN_MOTION_DOT": 1.014e-05, "MEAN_MOTION_DDOT": 0}, "tle": {"line1": "1 30109U 99025RN  25335.55489491  .00001014  00000+0  45426-3 0  9990", "line2": "2 30109  98.5074 329.5342 0167197 264.8946 222.5399 14.17515934973939"}}, "geometry": {"type": "Point", "coordinates": [-23.30050204737351, -36.90052536706234]}}]}